{
  "norad_id": 46808,
  "name": "YAOGAN-30 08B",
  "history": [
    {
      "epoch": "2026-03-28T19:43:20.464896Z",
      "apogee_km": 561.0386976279551,
      "perigee_km": 559.1501110396966,
      "latitude_deg": 3.819408459325208e-06,
      "longitude_deg": 98.59203094098461,
      "height_km": 558.1127430832227,
      "semi_major_axis_km": 6938.231404333826,
      "eccentricity": 0.0001361,
      "inclination_deg": 34.9937,
      "raan_deg": 220.664,
      "arg_perigee_deg": 342.1013,
      "mean_anomaly_deg": 17.9647,
      "mean_motion_rev_day": 15.02206343
    }
  ]
}