{"fetched_at":"2026-03-30T06:02:59Z","count":15439,"tles":[{"name":"YAOGAN-30 08B","line1":"1 46808U 20076B   26087.82176464  .00003754  00000+0  28124-3 0  9990","line2":"2 46808  34.9937 220.6640 0001361 342.1013  17.9647 15.02206343296139","category":"Other"}]}